{
 "cells": [
  {
   "cell_type": "markdown",
   "metadata": {},
   "source": [
    "# This notebook is to test a single batch run in ADAM"
   ]
  },
  {
   "cell_type": "code",
   "execution_count": 2,
   "metadata": {},
   "outputs": [],
   "source": [
    "import sys\n",
    "from os.path import expanduser\n",
    "sys.path.append(expanduser(\"~\") + \"/adam_home\") # / syntax works for Windows, Mac, and Linux"
   ]
  },
  {
   "cell_type": "code",
   "execution_count": 3,
   "metadata": {},
   "outputs": [],
   "source": [
    "from adam import Batch\n",
    "from adam import Batches\n",
    "from adam import BatchRunManager\n",
    "from adam import PropagationParams\n",
    "from adam import OpmParams\n",
    "from adam import ConfigManager\n",
    "from adam import Projects\n",
    "from adam import RestRequests\n",
    "from adam import AuthenticatingRestProxy\n",
    "import time\n",
    "import os"
   ]
  },
  {
   "cell_type": "markdown",
   "metadata": {},
   "source": [
    "This sets up authenticated access to the server. It needs to be done before pretty much everything you want to do with ADAM."
   ]
  },
  {
   "cell_type": "code",
   "execution_count": 4,
   "metadata": {},
   "outputs": [],
   "source": [
    "# Reads your config from a file in current directory. For instructions on setting this up, see config_demo notebook.\n",
    "config = ConfigManager(os.getcwd() + '/config.json').get_config()\n",
    "auth_rest = AuthenticatingRestProxy(RestRequests(config.get_url()), config.get_token())"
   ]
  },
  {
   "cell_type": "markdown",
   "metadata": {},
   "source": [
    "## Example Inputs"
   ]
  },
  {
   "cell_type": "code",
   "execution_count": 5,
   "metadata": {},
   "outputs": [],
   "source": [
    "# 6x1 state vector (position [km], velocity [km/s])\n",
    "state_vec = [130347560.13690618,\n",
    "             -74407287.6018632,\n",
    "             -35247598.541470632,\n",
    "             23.935241263310683,\n",
    "             27.146279819258538,\n",
    "             10.346605942591514]\n",
    "\n",
    "# Lower triangular covariance matrix (21 elements in a list)\n",
    "covariance = [3.331349476038534e-04, + \\\n",
    "              4.618927349220216e-04, 6.782421679971363e-04, + \\\n",
    "             -3.070007847730449e-04, -4.221234189514228e-04, 3.231931992380369e-04, + \\\n",
    "             -3.349365033922630e-07, -4.686084221046758e-07, 2.484949578400095e-07, 4.296022805587290e-10, + \\\n",
    "             -2.211832501084875e-07, -2.864186892102733e-07, 1.798098699846038e-07, 2.608899201686016e-10, 1.767514756338532e-10, + \\\n",
    "             -3.041346050686871e-07, -4.989496988610662e-07, 3.540310904497689e-07, 1.869263192954590e-10, 1.008862586240695e-10, 6.224444338635500e-10]"
   ]
  },
  {
   "cell_type": "markdown",
   "metadata": {},
   "source": [
    "### Set Parameters\n",
    "\n",
    "Commented parameters are optional. Uncomment to use."
   ]
  },
  {
   "cell_type": "code",
   "execution_count": 6,
   "metadata": {},
   "outputs": [],
   "source": [
    "propagation_params = PropagationParams({\n",
    "    'start_time': '2017-10-04T00:00:00Z',   # propagation start time in ISO format\n",
    "    'end_time': '2017-10-11T00:00:00Z',     # propagation end time in ISO format\n",
    "\n",
    "    'project_uuid': config.get_workspace(),\n",
    "\n",
    "#     'step_size': 60 * 60,                   # step size (seconds)\n",
    "#     'propagator_uuid': '00000000-0000-0000-0000-000000000002',  # force model\n",
    "#     'description': 'some description'       # description of run\n",
    "})\n",
    "\n",
    "opm_params = OpmParams({\n",
    "    'epoch': '2017-10-04T00:00:00Z',\n",
    "    'state_vector': state_vec,\n",
    "            \n",
    "#     'mass': 500.5,              # object mass\n",
    "#     'solar_rad_area': 25.2,     # object solar radiation area (m^2)\n",
    "#     'solar_rad_coeff': 1.2,     # object solar radiation coefficient\n",
    "#     'drag_area': 33.3,          # object drag area (m^2)\n",
    "#     'drag_coeff': 2.5,          # object drag coefficient\n",
    "    \n",
    "#     'covariance': covariance,   # object covariance\n",
    "#     'perturbation': 3,          # sigma perturbation on state vector\n",
    "#     'hypercube': 'FACES',       # hypercube propagation type\n",
    "    \n",
    "#     'originator': 'Robot',      # originator of run\n",
    "#     'object_name': 'TestObj',   # object name\n",
    "#     'object_id': 'test1234',    # object ID\n",
    "})"
   ]
  },
  {
   "cell_type": "markdown",
   "metadata": {},
   "source": [
    "### Submit and Run Propagation"
   ]
  },
  {
   "cell_type": "code",
   "execution_count": 7,
   "metadata": {},
   "outputs": [
    {
     "name": "stdout",
     "output_type": "stream",
     "text": [
      "Submitting OPM:\n",
      "CCSDS_OPM_VERS = 2.0\n",
      "CREATION_DATE = 2018-06-29 18:39:26.425561\n",
      "ORIGINATOR = ADAM_User\n",
      "COMMENT Cartesian coordinate system\n",
      "OBJECT_NAME = dummy\n",
      "OBJECT_ID = 001\n",
      "CENTER_NAME = SUN\n",
      "REF_FRAME = ICRF\n",
      "TIME_SYSTEM = UTC\n",
      "EPOCH = 2017-10-04T00:00:00Z\n",
      "X = 130347560.13690618\n",
      "Y = -74407287.6018632\n",
      "Z = -35247598.54147063\n",
      "X_DOT = 23.935241263310683\n",
      "Y_DOT = 27.146279819258538\n",
      "Z_DOT = 10.346605942591514\n",
      "MASS = 1000\n",
      "SOLAR_RAD_AREA = 20\n",
      "SOLAR_RAD_COEFF = 1\n",
      "DRAG_AREA = 20\n",
      "DRAG_COEFF = 2.2\n",
      "\n"
     ]
    }
   ],
   "source": [
    "batch = Batch(propagation_params, opm_params)\n",
    "print(\"Submitting OPM:\")\n",
    "print(batch.get_opm_params().generate_opm())"
   ]
  },
  {
   "cell_type": "code",
   "execution_count": 8,
   "metadata": {},
   "outputs": [
    {
     "ename": "RuntimeError",
     "evalue": "Server status code: 503; Response: {'error': {'errors': [{'domain': 'global', 'reason': 'backendError', 'message': 'org.apache.shiro.session.ExpiredSessionException: Session with id [76985749-75b6-47c2-bfb5-546e3f54b778] has expired. Last access time: 6/29/18 5:45 PM.  Current time: 6/29/18 6:39 PM.  Session timeout is set to 1800 seconds (30 minutes)'}], 'code': 503, 'message': 'org.apache.shiro.session.ExpiredSessionException: Session with id [76985749-75b6-47c2-bfb5-546e3f54b778] has expired. Last access time: 6/29/18 5:45 PM.  Current time: 6/29/18 6:39 PM.  Session timeout is set to 1800 seconds (30 minutes)'}}",
     "output_type": "error",
     "traceback": [
      "\u001b[1;31m---------------------------------------------------------------------------\u001b[0m",
      "\u001b[1;31mRuntimeError\u001b[0m                              Traceback (most recent call last)",
      "\u001b[1;32m<ipython-input-8-155fc0afa868>\u001b[0m in \u001b[0;36m<module>\u001b[1;34m()\u001b[0m\n\u001b[0;32m      1\u001b[0m \u001b[1;31m# Submit and wait until batch run is ready\u001b[0m\u001b[1;33m\u001b[0m\u001b[1;33m\u001b[0m\u001b[0m\n\u001b[0;32m      2\u001b[0m \u001b[0mbatches_module\u001b[0m \u001b[1;33m=\u001b[0m \u001b[0mBatches\u001b[0m\u001b[1;33m(\u001b[0m\u001b[0mauth_rest\u001b[0m\u001b[1;33m)\u001b[0m\u001b[1;33m\u001b[0m\u001b[0m\n\u001b[1;32m----> 3\u001b[1;33m \u001b[0mBatchRunManager\u001b[0m\u001b[1;33m(\u001b[0m\u001b[0mbatches_module\u001b[0m\u001b[1;33m,\u001b[0m \u001b[1;33m[\u001b[0m\u001b[0mbatch\u001b[0m\u001b[1;33m]\u001b[0m\u001b[1;33m)\u001b[0m\u001b[1;33m.\u001b[0m\u001b[0mrun\u001b[0m\u001b[1;33m(\u001b[0m\u001b[1;33m)\u001b[0m\u001b[1;33m\u001b[0m\u001b[0m\n\u001b[0m",
      "\u001b[1;32m~/adam_home\\adam\\batch_run_manager.py\u001b[0m in \u001b[0;36mrun\u001b[1;34m(self)\u001b[0m\n\u001b[0;32m    214\u001b[0m \u001b[1;33m\u001b[0m\u001b[0m\n\u001b[0;32m    215\u001b[0m     \u001b[1;32mdef\u001b[0m \u001b[0mrun\u001b[0m\u001b[1;33m(\u001b[0m\u001b[0mself\u001b[0m\u001b[1;33m)\u001b[0m\u001b[1;33m:\u001b[0m\u001b[1;33m\u001b[0m\u001b[0m\n\u001b[1;32m--> 216\u001b[1;33m         \u001b[0mself\u001b[0m\u001b[1;33m.\u001b[0m\u001b[0m_submit\u001b[0m\u001b[1;33m(\u001b[0m\u001b[1;33m)\u001b[0m\u001b[1;33m\u001b[0m\u001b[0m\n\u001b[0m\u001b[0;32m    217\u001b[0m         \u001b[0mself\u001b[0m\u001b[1;33m.\u001b[0m\u001b[0m_wait_for_completion\u001b[0m\u001b[1;33m(\u001b[0m\u001b[1;33m)\u001b[0m\u001b[1;33m\u001b[0m\u001b[0m\n\u001b[0;32m    218\u001b[0m         \u001b[0mself\u001b[0m\u001b[1;33m.\u001b[0m\u001b[0m_get_results\u001b[0m\u001b[1;33m(\u001b[0m\u001b[1;33m)\u001b[0m\u001b[1;33m\u001b[0m\u001b[0m\n",
      "\u001b[1;32m~/adam_home\\adam\\batch_run_manager.py\u001b[0m in \u001b[0;36m_submit\u001b[1;34m(self)\u001b[0m\n\u001b[0;32m    138\u001b[0m         \u001b[1;31m# thread.\u001b[0m\u001b[1;33m\u001b[0m\u001b[1;33m\u001b[0m\u001b[0m\n\u001b[0;32m    139\u001b[0m         pool.map(_submit_batches,\n\u001b[1;32m--> 140\u001b[1;33m                  [i for i in range(0, len(self.batch_runs), submission_batch_size)])\n\u001b[0m\u001b[0;32m    141\u001b[0m         \u001b[0mpool\u001b[0m\u001b[1;33m.\u001b[0m\u001b[0mclose\u001b[0m\u001b[1;33m(\u001b[0m\u001b[1;33m)\u001b[0m\u001b[1;33m\u001b[0m\u001b[0m\n\u001b[0;32m    142\u001b[0m         \u001b[0mpool\u001b[0m\u001b[1;33m.\u001b[0m\u001b[0mjoin\u001b[0m\u001b[1;33m(\u001b[0m\u001b[1;33m)\u001b[0m\u001b[1;33m\u001b[0m\u001b[0m\n",
      "\u001b[1;32m~\\Anaconda3\\lib\\multiprocessing\\pool.py\u001b[0m in \u001b[0;36mmap\u001b[1;34m(self, func, iterable, chunksize)\u001b[0m\n\u001b[0;32m    264\u001b[0m         \u001b[1;32min\u001b[0m \u001b[0ma\u001b[0m \u001b[0mlist\u001b[0m \u001b[0mthat\u001b[0m \u001b[1;32mis\u001b[0m \u001b[0mreturned\u001b[0m\u001b[1;33m.\u001b[0m\u001b[1;33m\u001b[0m\u001b[0m\n\u001b[0;32m    265\u001b[0m         '''\n\u001b[1;32m--> 266\u001b[1;33m         \u001b[1;32mreturn\u001b[0m \u001b[0mself\u001b[0m\u001b[1;33m.\u001b[0m\u001b[0m_map_async\u001b[0m\u001b[1;33m(\u001b[0m\u001b[0mfunc\u001b[0m\u001b[1;33m,\u001b[0m \u001b[0miterable\u001b[0m\u001b[1;33m,\u001b[0m \u001b[0mmapstar\u001b[0m\u001b[1;33m,\u001b[0m \u001b[0mchunksize\u001b[0m\u001b[1;33m)\u001b[0m\u001b[1;33m.\u001b[0m\u001b[0mget\u001b[0m\u001b[1;33m(\u001b[0m\u001b[1;33m)\u001b[0m\u001b[1;33m\u001b[0m\u001b[0m\n\u001b[0m\u001b[0;32m    267\u001b[0m \u001b[1;33m\u001b[0m\u001b[0m\n\u001b[0;32m    268\u001b[0m     \u001b[1;32mdef\u001b[0m \u001b[0mstarmap\u001b[0m\u001b[1;33m(\u001b[0m\u001b[0mself\u001b[0m\u001b[1;33m,\u001b[0m \u001b[0mfunc\u001b[0m\u001b[1;33m,\u001b[0m \u001b[0miterable\u001b[0m\u001b[1;33m,\u001b[0m \u001b[0mchunksize\u001b[0m\u001b[1;33m=\u001b[0m\u001b[1;32mNone\u001b[0m\u001b[1;33m)\u001b[0m\u001b[1;33m:\u001b[0m\u001b[1;33m\u001b[0m\u001b[0m\n",
      "\u001b[1;32m~\\Anaconda3\\lib\\multiprocessing\\pool.py\u001b[0m in \u001b[0;36mget\u001b[1;34m(self, timeout)\u001b[0m\n\u001b[0;32m    642\u001b[0m             \u001b[1;32mreturn\u001b[0m \u001b[0mself\u001b[0m\u001b[1;33m.\u001b[0m\u001b[0m_value\u001b[0m\u001b[1;33m\u001b[0m\u001b[0m\n\u001b[0;32m    643\u001b[0m         \u001b[1;32melse\u001b[0m\u001b[1;33m:\u001b[0m\u001b[1;33m\u001b[0m\u001b[0m\n\u001b[1;32m--> 644\u001b[1;33m             \u001b[1;32mraise\u001b[0m \u001b[0mself\u001b[0m\u001b[1;33m.\u001b[0m\u001b[0m_value\u001b[0m\u001b[1;33m\u001b[0m\u001b[0m\n\u001b[0m\u001b[0;32m    645\u001b[0m \u001b[1;33m\u001b[0m\u001b[0m\n\u001b[0;32m    646\u001b[0m     \u001b[1;32mdef\u001b[0m \u001b[0m_set\u001b[0m\u001b[1;33m(\u001b[0m\u001b[0mself\u001b[0m\u001b[1;33m,\u001b[0m \u001b[0mi\u001b[0m\u001b[1;33m,\u001b[0m \u001b[0mobj\u001b[0m\u001b[1;33m)\u001b[0m\u001b[1;33m:\u001b[0m\u001b[1;33m\u001b[0m\u001b[0m\n",
      "\u001b[1;32m~\\Anaconda3\\lib\\multiprocessing\\pool.py\u001b[0m in \u001b[0;36mworker\u001b[1;34m(inqueue, outqueue, initializer, initargs, maxtasks, wrap_exception)\u001b[0m\n\u001b[0;32m    117\u001b[0m         \u001b[0mjob\u001b[0m\u001b[1;33m,\u001b[0m \u001b[0mi\u001b[0m\u001b[1;33m,\u001b[0m \u001b[0mfunc\u001b[0m\u001b[1;33m,\u001b[0m \u001b[0margs\u001b[0m\u001b[1;33m,\u001b[0m \u001b[0mkwds\u001b[0m \u001b[1;33m=\u001b[0m \u001b[0mtask\u001b[0m\u001b[1;33m\u001b[0m\u001b[0m\n\u001b[0;32m    118\u001b[0m         \u001b[1;32mtry\u001b[0m\u001b[1;33m:\u001b[0m\u001b[1;33m\u001b[0m\u001b[0m\n\u001b[1;32m--> 119\u001b[1;33m             \u001b[0mresult\u001b[0m \u001b[1;33m=\u001b[0m \u001b[1;33m(\u001b[0m\u001b[1;32mTrue\u001b[0m\u001b[1;33m,\u001b[0m \u001b[0mfunc\u001b[0m\u001b[1;33m(\u001b[0m\u001b[1;33m*\u001b[0m\u001b[0margs\u001b[0m\u001b[1;33m,\u001b[0m \u001b[1;33m**\u001b[0m\u001b[0mkwds\u001b[0m\u001b[1;33m)\u001b[0m\u001b[1;33m)\u001b[0m\u001b[1;33m\u001b[0m\u001b[0m\n\u001b[0m\u001b[0;32m    120\u001b[0m         \u001b[1;32mexcept\u001b[0m \u001b[0mException\u001b[0m \u001b[1;32mas\u001b[0m \u001b[0me\u001b[0m\u001b[1;33m:\u001b[0m\u001b[1;33m\u001b[0m\u001b[0m\n\u001b[0;32m    121\u001b[0m             \u001b[1;32mif\u001b[0m \u001b[0mwrap_exception\u001b[0m \u001b[1;32mand\u001b[0m \u001b[0mfunc\u001b[0m \u001b[1;32mis\u001b[0m \u001b[1;32mnot\u001b[0m \u001b[0m_helper_reraises_exception\u001b[0m\u001b[1;33m:\u001b[0m\u001b[1;33m\u001b[0m\u001b[0m\n",
      "\u001b[1;32m~\\Anaconda3\\lib\\multiprocessing\\pool.py\u001b[0m in \u001b[0;36mmapstar\u001b[1;34m(args)\u001b[0m\n\u001b[0;32m     42\u001b[0m \u001b[1;33m\u001b[0m\u001b[0m\n\u001b[0;32m     43\u001b[0m \u001b[1;32mdef\u001b[0m \u001b[0mmapstar\u001b[0m\u001b[1;33m(\u001b[0m\u001b[0margs\u001b[0m\u001b[1;33m)\u001b[0m\u001b[1;33m:\u001b[0m\u001b[1;33m\u001b[0m\u001b[0m\n\u001b[1;32m---> 44\u001b[1;33m     \u001b[1;32mreturn\u001b[0m \u001b[0mlist\u001b[0m\u001b[1;33m(\u001b[0m\u001b[0mmap\u001b[0m\u001b[1;33m(\u001b[0m\u001b[1;33m*\u001b[0m\u001b[0margs\u001b[0m\u001b[1;33m)\u001b[0m\u001b[1;33m)\u001b[0m\u001b[1;33m\u001b[0m\u001b[0m\n\u001b[0m\u001b[0;32m     45\u001b[0m \u001b[1;33m\u001b[0m\u001b[0m\n\u001b[0;32m     46\u001b[0m \u001b[1;32mdef\u001b[0m \u001b[0mstarmapstar\u001b[0m\u001b[1;33m(\u001b[0m\u001b[0margs\u001b[0m\u001b[1;33m)\u001b[0m\u001b[1;33m:\u001b[0m\u001b[1;33m\u001b[0m\u001b[0m\n",
      "\u001b[1;32m~/adam_home\\adam\\batch_run_manager.py\u001b[0m in \u001b[0;36m_submit_batches\u001b[1;34m(i)\u001b[0m\n\u001b[0;32m    127\u001b[0m \u001b[1;33m\u001b[0m\u001b[0m\n\u001b[0;32m    128\u001b[0m             \u001b[1;31m# Call to the server to create the batches.\u001b[0m\u001b[1;33m\u001b[0m\u001b[1;33m\u001b[0m\u001b[0m\n\u001b[1;32m--> 129\u001b[1;33m             \u001b[0msummaries\u001b[0m \u001b[1;33m=\u001b[0m \u001b[0mself\u001b[0m\u001b[1;33m.\u001b[0m\u001b[0mbatches_module\u001b[0m\u001b[1;33m.\u001b[0m\u001b[0mnew_batches\u001b[0m\u001b[1;33m(\u001b[0m\u001b[0mparams\u001b[0m\u001b[1;33m)\u001b[0m\u001b[1;33m\u001b[0m\u001b[0m\n\u001b[0m\u001b[0;32m    130\u001b[0m \u001b[1;33m\u001b[0m\u001b[0m\n\u001b[0;32m    131\u001b[0m             \u001b[1;31m# Update the batches with the resulting state summaries.\u001b[0m\u001b[1;33m\u001b[0m\u001b[1;33m\u001b[0m\u001b[0m\n",
      "\u001b[1;32m~/adam_home\\adam\\batches.py\u001b[0m in \u001b[0;36mnew_batches\u001b[1;34m(self, param_pairs)\u001b[0m\n\u001b[0;32m     51\u001b[0m         \u001b[1;31m# Check error code\u001b[0m\u001b[1;33m\u001b[0m\u001b[1;33m\u001b[0m\u001b[0m\n\u001b[0;32m     52\u001b[0m         \u001b[1;32mif\u001b[0m \u001b[0mcode\u001b[0m \u001b[1;33m!=\u001b[0m \u001b[1;36m200\u001b[0m\u001b[1;33m:\u001b[0m\u001b[1;33m\u001b[0m\u001b[0m\n\u001b[1;32m---> 53\u001b[1;33m             \u001b[1;32mraise\u001b[0m \u001b[0mRuntimeError\u001b[0m\u001b[1;33m(\u001b[0m\u001b[1;34m\"Server status code: %s; Response: %s\"\u001b[0m \u001b[1;33m%\u001b[0m \u001b[1;33m(\u001b[0m\u001b[0mcode\u001b[0m\u001b[1;33m,\u001b[0m \u001b[0mresponse\u001b[0m\u001b[1;33m)\u001b[0m\u001b[1;33m)\u001b[0m\u001b[1;33m\u001b[0m\u001b[0m\n\u001b[0m\u001b[0;32m     54\u001b[0m \u001b[1;33m\u001b[0m\u001b[0m\n\u001b[0;32m     55\u001b[0m         \u001b[1;32mif\u001b[0m \u001b[0mlen\u001b[0m\u001b[1;33m(\u001b[0m\u001b[0mparam_pairs\u001b[0m\u001b[1;33m)\u001b[0m \u001b[1;33m!=\u001b[0m \u001b[0mlen\u001b[0m\u001b[1;33m(\u001b[0m\u001b[0mresponse\u001b[0m\u001b[1;33m[\u001b[0m\u001b[1;34m'requests'\u001b[0m\u001b[1;33m]\u001b[0m\u001b[1;33m)\u001b[0m\u001b[1;33m:\u001b[0m\u001b[1;33m\u001b[0m\u001b[0m\n",
      "\u001b[1;31mRuntimeError\u001b[0m: Server status code: 503; Response: {'error': {'errors': [{'domain': 'global', 'reason': 'backendError', 'message': 'org.apache.shiro.session.ExpiredSessionException: Session with id [76985749-75b6-47c2-bfb5-546e3f54b778] has expired. Last access time: 6/29/18 5:45 PM.  Current time: 6/29/18 6:39 PM.  Session timeout is set to 1800 seconds (30 minutes)'}], 'code': 503, 'message': 'org.apache.shiro.session.ExpiredSessionException: Session with id [76985749-75b6-47c2-bfb5-546e3f54b778] has expired. Last access time: 6/29/18 5:45 PM.  Current time: 6/29/18 6:39 PM.  Session timeout is set to 1800 seconds (30 minutes)'}}"
     ]
    }
   ],
   "source": [
    "# Submit and wait until batch run is ready\n",
    "batches_module = Batches(auth_rest)\n",
    "BatchRunManager(batches_module, [batch]).run()"
   ]
  },
  {
   "cell_type": "markdown",
   "metadata": {},
   "source": [
    "### Get Status and Parts Count"
   ]
  },
  {
   "cell_type": "code",
   "execution_count": null,
   "metadata": {},
   "outputs": [],
   "source": [
    "# Get final status and parts count\n",
    "parts_count = batch.get_state_summary().get_parts_count()\n",
    "print(\"Final state: %s, part count %s\\n\" % (batch.get_calc_state(), parts_count))"
   ]
  },
  {
   "cell_type": "markdown",
   "metadata": {},
   "source": [
    "### Get Ephemeris of Specified Part"
   ]
  },
  {
   "cell_type": "code",
   "execution_count": null,
   "metadata": {},
   "outputs": [],
   "source": [
    "# Get ephemeris of specified part\n",
    "part_to_get = 0\n",
    "eph = batch.get_results().get_parts()[part_to_get].get_ephemeris()\n",
    "print(\"Ephemeris:\")\n",
    "print(eph)"
   ]
  },
  {
   "cell_type": "markdown",
   "metadata": {},
   "source": [
    "### Get ending state vector"
   ]
  },
  {
   "cell_type": "code",
   "execution_count": null,
   "metadata": {},
   "outputs": [],
   "source": [
    "# Get the end state vector (uncomment to use)\n",
    "end_state_vector = batch.get_results().get_end_state_vector()\n",
    "print(\"State vector at the end of propagation:\")\n",
    "print(end_state_vector)"
   ]
  },
  {
   "cell_type": "code",
   "execution_count": null,
   "metadata": {},
   "outputs": [],
   "source": []
  }
 ],
 "metadata": {
  "kernelspec": {
   "display_name": "Python 3",
   "language": "python",
   "name": "python3"
  },
  "language_info": {
   "codemirror_mode": {
    "name": "ipython",
    "version": 3
   },
   "file_extension": ".py",
   "mimetype": "text/x-python",
   "name": "python",
   "nbconvert_exporter": "python",
   "pygments_lexer": "ipython3",
   "version": "3.6.4"
  }
 },
 "nbformat": 4,
 "nbformat_minor": 1
}
